{"type": "FeatureCollection", "features": [ {"type": "Feature", "properties": {"norad_id": 66826, "name": "STARLINK-35898", "group": "last-30-days", "lat": -27.250868455942175, "lon": 16.803093987563837, "alt_km": 383.44175989622363, "timestamp": "2025-12-17T07:00:45.612983+00:00", "meta": {"OBJECT_NAME": "STARLINK-35898", "OBJECT_ID": "2025-280F", "EPOCH": "2025-12-16T22:00:03.000096", "MEAN_MOTION": 15.64613721, "ECCENTRICITY": 0.00033327, "INCLINATION": 69.9997, "RA_OF_ASC_NODE": 187.0357, "ARG_OF_PERICENTER": 274.2882, "MEAN_ANOMALY": 341.5362, "EPHEMERIS_TYPE": 0, "CLASSIFICATION_TYPE": "U", "NORAD_CAT_ID": 66826, "ELEMENT_SET_NO": 999, "REV_AT_EPOCH": 356, "BSTAR": -0.022938859, "MEAN_MOTION_DOT": -0.01964749, "MEAN_MOTION_DDOT": 0}, "tle": {"line1": "1 66826U 25280F   25350.91670139 -.01964749  00000+0 -22939-1 0  9993", "line2": "2 66826  69.9997 187.0357 0003332 274.2882 341.5362 15.64613721  3568"}}, "geometry": {"type": "Point", "coordinates": [16.803093987563837, -27.250868455942175]}}, {"type": "Feature", "properties": {"norad_id": 66827, "name": "STARLINK-35959", "group": "last-30-days", "lat": -29.017229355276505, "lon": 17.644538244895884, "alt_km": 383.4991808526265, "timestamp": "2025-12-17T07:00:45.612993+00:00", "meta": {"OBJECT_NAME": "STARLINK-35959", "OBJECT_ID": "2025-280G", "EPOCH": "2025-12-16T22:00:03.000096", "MEAN_MOTION": 15.64617176, "ECCENTRICITY": 0.00032431, "INCLINATION": 69.9995, "RA_OF_ASC_NODE": 187.0334, "ARG_OF_PERICENTER": 273.4793, "MEAN_ANOMALY": 344.2595, "EPHEMERIS_TYPE": 0, "CLASSIFICATION_TYPE": "U", "NORAD_CAT_ID": 66827, "ELEMENT_SET_NO": 999, "REV_AT_EPOCH": 356, "BSTAR": -0.022986281, "MEAN_MOTION_DOT": -0.01968489, "MEAN_MOTION_DDOT": 0}, "tle": {"line1": "1 66827U 25280G   25350.91670139 -.01968489  00000+0 -22986-1 0  9991", "line2": "2 66827  69.9995 187.0334 0003243 273.4793 344.2595 15.64617176  3561"}}, "geometry": {"type": "Point", "coordinates": [17.644538244895884, -29.017229355276505]}}, {"type": "Feature", "properties": {"norad_id": 66828, "name": "STARLINK-35982", "group": "last-30-days", "lat": -32.52983905010094, "lon": 19.416803908555945, "alt_km": 383.50410936175376, "timestamp": "2025-12-17T07:00:45.613021+00:00", "meta": {"OBJECT_NAME": "STARLINK-35982", "OBJECT_ID": "2025-280H", "EPOCH": "2025-12-16T22:00:03.000096", "MEAN_MOTION": 15.6461811, "ECCENTRICITY": 0.00032981, "INCLINATION": 69.9995, "RA_OF_ASC_NODE": 187.0289, "ARG_OF_PERICENTER": 270.8859, "MEAN_ANOMALY": 350.687, "EPHEMERIS_TYPE": 0, "CLASSIFICATION_TYPE": "U", "NORAD_CAT_ID": 66828, "ELEMENT_SET_NO": 999, "REV_AT_EPOCH": 356, "BSTAR": -0.023050674, "MEAN_MOTION_DOT": -0.01973466, "MEAN_MOTION_DDOT": 0}, "tle": {"line1": "1 66828U 25280H   25350.91670139 -.01973466  00000+0 -23051-1 0  9997", "line2": "2 66828  69.9995 187.0289 0003298 270.8859 350.6870 15.64618110  3561"}}, "geometry": {"type": "Point", "coordinates": [19.416803908555945, -32.52983905010094]}}, {"type": "Feature", "properties": {"norad_id": 66829, "name": "STARLINK-36084", "group": "last-30-days", "lat": -30.779512275956403, "lon": 18.515555151061605, "alt_km": 383.4223517551345, "timestamp": "2025-12-17T07:00:45.613032+00:00", "meta": {"OBJECT_NAME": "STARLINK-36084", "OBJECT_ID": "2025-280J", "EPOCH": "2025-12-16T22:00:03.000096", "MEAN_MOTION": 15.64604708, "ECCENTRICITY": 0.00032251, "INCLINATION": 69.9994, "RA_OF_ASC_NODE": 187.0307, "ARG_OF_PERICENTER": 270.1626, "MEAN_ANOMALY": 349.4968, "EPHEMERIS_TYPE": 0, "CLASSIFICATION_TYPE": "U", "NORAD_CAT_ID": 66829, "ELEMENT_SET_NO": 999, "REV_AT_EPOCH": 341, "BSTAR": -0.022690843, "MEAN_MOTION_DOT": -0.01945266, "MEAN_MOTION_DDOT": 0}, "tle": {"line1": "1 66829U 25280J   25350.91670139 -.01945266  00000+0 -22691-1 0  9994", "line2": "2 66829  69.9994 187.0307 0003225 270.1626 349.4968 15.64604708  3413"}}, "geometry": {"type": "Point", "coordinates": [18.515555151061605, -30.779512275956403]}}, {"type": "Feature", "properties": {"norad_id": 66830, "name": "STARLINK-35881", "group": "last-30-days", "lat": -34.27766663520666, "lon": 20.355215022853287, "alt_km": 383.6280471443861, "timestamp": "2025-12-17T07:00:45.613044+00:00", "meta": {"OBJECT_NAME": "STARLINK-35881", "OBJECT_ID": "2025-280K", "EPOCH": "2025-12-16T22:00:03.000096", "MEAN_MOTION": 15.64613702, "ECCENTRICITY": 0.0003187, "INCLINATION": 69.9993, "RA_OF_ASC_NODE": 187.0259, "ARG_OF_PERICENTER": 272.5673, "MEAN_ANOMALY": 350.922, "EPHEMERIS_TYPE": 0, "CLASSIFICATION_TYPE": "U", "NORAD_CAT_ID": 66830, "ELEMENT_SET_NO": 999, "REV_AT_EPOCH": 356, "BSTAR": -0.022907158, "MEAN_MOTION_DOT": -0.01962219, "MEAN_MOTION_DDOT": 0}, "tle": {"line1": "1 66830U 25280K   25350.91670139 -.01962219  00000+0 -22907-1 0  9993", "line2": "2 66830  69.9993 187.0259 0003187 272.5673 350.9220 15.64613702  3563"}}, "geometry": {"type": "Point", "coordinates": [20.355215022853287, -34.27766663520666]}}, {"type": "Feature", "properties": {"norad_id": 66831, "name": "STARLINK-35788", "group": "last-30-days", "lat": -36.0144230745896, "lon": 21.33306584154098, "alt_km": 383.56771899003525, "timestamp": "2025-12-17T07:00:45.613056+00:00", "meta": {"OBJECT_NAME": "STARLINK-35788", "OBJECT_ID": "2025-280L", "EPOCH": "2025-12-16T22:00:03.000096", "MEAN_MOTION": 15.64614486, "ECCENTRICITY": 0.00034474, "INCLINATION": 69.9995, "RA_OF_ASC_NODE": 187.0248, "ARG_OF_PERICENTER": 272.5154, "MEAN_ANOMALY": 352.8924, "EPHEMERIS_TYPE": 0, "CLASSIFICATION_TYPE": "U", "NORAD_CAT_ID": 66831, "ELEMENT_SET_NO": 999, "REV_AT_EPOCH": 356, "BSTAR": -0.022970819, "MEAN_MOTION_DOT": -0.01967324, "MEAN_MOTION_DDOT": 0}, "tle": {"line1": "1 66831U 25280L   25350.91670139 -.01967324  00000+0 -22971-1 0  9997", "line2": "2 66831  69.9995 187.0248 0003447 272.5154 352.8924 15.64614486  3569"}}, "geometry": {"type": "Point", "coordinates": [21.33306584154098, -36.0144230745896]}}, {"type": "Feature", "properties": {"norad_id": 66832, "name": "STARLINK-35768", "group": "last-30-days", "lat": -37.74719813421809, "lon": 22.355689670985583, "alt_km": 383.6926349634077, "timestamp": "2025-12-17T07:00:45.613068+00:00", "meta": {"OBJECT_NAME": "STARLINK-35768", "OBJECT_ID": "2025-280M", "EPOCH": "2025-12-16T22:00:03.000096", "MEAN_MOTION": 15.64616649, "ECCENTRICITY": 0.00031973, "INCLINATION": 69.9993, "RA_OF_ASC_NODE": 187.0215, "ARG_OF_PERICENTER": 272.1747, "MEAN_ANOMALY": 355.1475, "EPHEMERIS_TYPE": 0, "CLASSIFICATION_TYPE": "U", "NORAD_CAT_ID": 66832, "ELEMENT_SET_NO": 999, "REV_AT_EPOCH": 356, "BSTAR": -0.022988482, "MEAN_MOTION_DOT": -0.01968577, "MEAN_MOTION_DDOT": 0}, "tle": {"line1": "1 66832U 25280M   25350.91670139 -.01968577  00000+0 -22988-1 0  9997", "line2": "2 66832  69.9993 187.0215 0003197 272.1747 355.1475 15.64616649  3568"}}, "geometry": {"type": "Point", "coordinates": [22.355689670985583, -37.74719813421809]}}, {"type": "Feature", "properties": {"norad_id": 66833, "name": "STARLINK-35858", "group": "last-30-days", "lat": -39.46714268053702, "lon": 23.42647396347784, "alt_km": 383.74690494653896, "timestamp": "2025-12-17T07:00:45.613079+00:00", "meta": {"OBJECT_NAME": "STARLINK-35858", "OBJECT_ID": "2025-280N", "EPOCH": "2025-12-16T22:00:03.000096", "MEAN_MOTION": 15.64617304, "ECCENTRICITY": 0.00032286, "INCLINATION": 69.9994, "RA_OF_ASC_NODE": 187.0198, "ARG_OF_PERICENTER": 273.3082, "MEAN_ANOMALY": 355.9307, "EPHEMERIS_TYPE": 0, "CLASSIFICATION_TYPE": "U", "NORAD_CAT_ID": 66833, "ELEMENT_SET_NO": 999, "REV_AT_EPOCH": 356, "BSTAR": -0.023023951, "MEAN_MOTION_DOT": -0.01971329, "MEAN_MOTION_DDOT": 0}, "tle": {"line1": "1 66833U 25280N   25350.91670139 -.01971329  00000+0 -23024-1 0  9999", "line2": "2 66833  69.9994 187.0198 0003228 273.3082 355.9307 15.64617304  3561"}}, "geometry": {"type": "Point", "coordinates": [23.42647396347784, -39.46714268053702]}}, {"type": "Feature", "properties": {"norad_id": 66834, "name": "STARLINK-35840", "group": "last-30-days", "lat": -41.17854340560558, "lon": 24.55117918162351, "alt_km": 383.7562010974125, "timestamp": "2025-12-17T07:00:45.613089+00:00", "meta": {"OBJECT_NAME": "STARLINK-35840", "OBJECT_ID": "2025-280P", "EPOCH": "2025-12-16T22:00:03.000096", "MEAN_MOTION": 15.64616096, "ECCENTRICITY": 0.00032422, "INCLINATION": 69.9994, "RA_OF_ASC_NODE": 187.0165, "ARG_OF_PERICENTER": 273.1704, "MEAN_ANOMALY": 357.9859, "EPHEMERIS_TYPE": 0, "CLASSIFICATION_TYPE": "U", "NORAD_CAT_ID": 66834, "ELEMENT_SET_NO": 999, "REV_AT_EPOCH": 356, "BSTAR": -0.022992187, "MEAN_MOTION_DOT": -0.0196886, "MEAN_MOTION_DDOT": 0}, "tle": {"line1": "1 66834U 25280P   25350.91670139 -.01968860  00000+0 -22992-1 0  9999", "line2": "2 66834  69.9994 187.0165 0003242 273.1704 357.9859 15.64616096  3562"}}, "geometry": {"type": "Point", "coordinates": [24.55117918162351, -41.17854340560558]}}, {"type": "Feature", "properties": {"norad_id": 66835, "name": "STARLINK-35890", "group": "last-30-days", "lat": -42.87799455880106, "lon": 25.736960227855, "alt_km": 383.6880321593653, "timestamp": "2025-12-17T07:00:45.613099+00:00", "meta": {"OBJECT_NAME": "STARLINK-35890", "OBJECT_ID": "2025-280Q", "EPOCH": "2025-12-16T22:00:03.000096", "MEAN_MOTION": 15.64617709, "ECCENTRICITY": 0.00033356, "INCLINATION": 69.9994, "RA_OF_ASC_NODE": 187.0142, "ARG_OF_PERICENTER": 271.6525, "MEAN_ANOMALY": 1.4201, "EPHEMERIS_TYPE": 0, "CLASSIFICATION_TYPE": "U", "NORAD_CAT_ID": 66835, "ELEMENT_SET_NO": 999, "REV_AT_EPOCH": 356, "BSTAR": -0.02302079, "MEAN_MOTION_DOT": -0.01971218, "MEAN_MOTION_DDOT": 0}, "tle": {"line1": "1 66835U 25280Q   25350.91670139 -.01971218  00000+0 -23021-1 0  9995", "line2": "2 66835  69.9994 187.0142 0003335 271.6525   1.4201 15.64617709  3569"}}, "geometry": {"type": "Point", "coordinates": [25.736960227855, -42.87799455880106]}}]}